satname,norad_id,inclination_deg,eccentricity,mean_motion_rev_per_day,perigee_km,apogee_km,l1,l2
STARLINK-1283,45389,53.0516,0.0001234,15.40177701,444.7423535304097,446.42644797211597,1 45389U 20019AF  25356.38221156  .00118734  00000+0  28788-2 0  9998,2 45389  53.0516 119.9404 0001234  12.1812 347.9222 15.40177701318558
STARLINK-1284,45390,53.0545,0.0001325,15.06406962,546.2726146364512,548.107826349883,1 45390U 20019AG  25357.78564061  .00000687  00000+0  65017-4 0  9995,2 45390  53.0545 127.3687 0001325  87.2853 272.8287 15.06406962318561
STARLINK-1297,45395,53.0553,0.0003504,15.06384278,544.8330850038792,549.6864030420911,1 45395U 20019AM  25357.75618531 -.00000684  00000+0 -27008-4 0  9996,2 45395  53.0553 127.4978 0003504  84.1917 275.9471 15.06384278317740
STARLINK-1307,45397,53.0543,0.0001292,15.06397208,546.3253588901098,548.1148711686337,1 45397U 20019AP  25356.68724552  .00001360  00000+0  11015-3 0  9990,2 45397  53.0543 132.2953 0001292  86.0679 274.0458 15.06397208318222
STARLINK-1255,45399,53.0473,0.0001462,15.39696738,446.0075316300399,448.00320325828125,1 45399U 20019AR  25357.49492856  .00016874  00000+0  42979-3 0  9990,2 45399  53.0473 105.7516 0001462  67.4993 292.6165 15.39696738318651
STARLINK-1260,45404,53.0576,0.0001414,15.06395904,546.2448655556082,548.2033576779731,1 45404U 20019AW  25356.62182080 -.00000710  00000+0 -28801-4 0  9999,2 45404  53.0576 122.5863 0001414  87.2383 272.8768 15.06395904318243
STARLINK-1263,45405,53.0556,0.0001446,15.0640261,546.2021544309509,548.2049629205203,1 45405U 20019AX  25357.07149964  .00000969  00000+0  83952-4 0  9996,2 45405  53.0556 120.5714 0001446  86.6986 273.4169 15.06402610318315
STARLINK-1265,45406,53.0546,0.0001235,15.06402258,546.3493578099014,548.059917194365,1 45406U 20019AY  25356.61445435  .00001142  00000+0  95550-4 0  9999,2 45406  53.0546 122.6240 0001235  88.7213 271.3918 15.06402258318243
STARLINK-1278,45408,53.0501,0.0006043,15.41305654,438.13329022571816,446.37641581928074,1 45408U 20019BA  25357.91668980  .00084737  00000+0  19899-2 0  9998,2 45408  53.0501 133.0480 0006043 181.0244  88.1526 15.41305654  5929
STARLINK-1296,45412,53.054,0.0001037,15.06397031,546.5024979215232,547.9388170996908,1 45412U 20019BE  25356.55178692  .00001226  00000+0  10118-3 0  9996,2 45412  53.0540 122.9018 0001037  91.7111 268.3997 15.06397031318235
STARLINK-1298,45413,53.043,0.0003759,15.64095287,373.3031342451868,378.38077562350645,1 45413U 20019BF  25357.91668980  .00096153  00000+0  98986-3 0  9994,2 45413  53.0430  73.3992 0003759  78.7979  56.2393 15.64095287  5985
STARLINK-1309,45414,53.055,0.0001398,15.06407767,546.2195929036989,548.1559137047216,1 45414U 20019BG  25357.49537488  .00000997  00000+0  85783-4 0  9999,2 45414  53.0550 118.6689 0001398  90.4173 269.6976 15.06407767318361
STARLINK-1316,45415,53.0554,0.0001208,15.06409559,546.3456825682015,548.0188397016918,1 45415U 20019BH  25357.72021955  .00001767  00000+0  13747-3 0  9999,2 45415  53.0554 117.6581 0001208  89.2383 270.8744 15.06409559318431
STARLINK-1318,45416,53.0449,0.0002296,15.71108123,354.18272924936537,357.27492043613256,1 45416U 20019BJ  25357.91668980  .00005828  00000+0  50030-4 0  9995,2 45416  53.0449  62.1664 0002296   5.4251 135.2065 15.71108123  5903
STARLINK-1286,45417,53.052,0.0002874,15.42844871,435.75898555846925,439.6767389332881,1 45417U 20019BK  25357.77487785  .00057909  00000+0  12998-2 0  9998,2 45417  53.0520 133.5137 0002874 194.5138 165.5785 15.42844871318477
STARLINK-1308,45419,53.0543,0.0001347,15.06401224,546.274962611662,548.1406505025498,1 45419U 20019BM  25357.15719947  .00000741  00000+0  68610-4 0  9996,2 45419  53.0543 150.1834 0001347  91.0523 269.0620 15.06401224317935
STARLINK-1329,45531,53.0538,0.0001022,15.41812653,440.0626995384937,441.4564820016467,1 45531U 20025A   25357.91668980 -.00004886  00000+0 -10412-3 0  9994,2 45531  53.0538  84.1692 0001022  84.2623 147.3581 15.41812653  5734
STARLINK-1338,45532,53.0553,0.0001162,15.22319239,498.04794836890323,499.64615946303275,1 45532U 20025B   25357.91668980  .01901937  00000+0  73812-1 0  9998,2 45532  53.0553  86.1725 0001162  84.7620 138.3566 15.22319239  5787
STARLINK-1350,45535,53.0743,0.0001666,15.33885987,463.09148320353233,465.37136036167067,1 45535U 20025E   25356.83209529  .00011097  00000+0  34457-3 0  9993,2 45535  53.0743  33.4978 0001666  83.9989 276.1202 15.33885987314358
STARLINK-1362,45538,53.0559,0.0001265,15.06417154,546.2829339558448,548.0350338397702,1 45538U 20025H   25357.63352676  .00002277  00000+0  17161-3 0  9990,2 45538  53.0559  87.7658 0001265 105.7501 254.3627 15.06417154313637
STARLINK-1368,45540,53.0552,0.0001376,15.06426527,546.177340922256,548.0831744715733,1 45540U 20025K   25357.63820788 -.00007449  00000+0 -48137-3 0  9992,2 45540  53.0552  88.0268 0001376  99.1630 260.9515 15.06426527313628
STARLINK-1371,45542,53.0548,0.0002087,15.09288969,536.927935236834,539.8148858473942,1 45542U 20025M   25357.91668980  .00004941  00000+0  32438-3 0  9998,2 45542  53.0548  86.7634 0002087  82.0769 155.1550 15.09288969  5789
STARLINK-1372,45543,53.0542,0.0001197,15.06422692,546.3130552019247,547.9709669971817,1 45543U 20025N   25357.57922269  .00004044  00000+0  29006-3 0  9995,2 45543  53.0542  88.2918 0001197  89.1068 271.0058 15.06422692312712
STARLINK-1373,45544,53.0553,0.0001236,15.06399005,546.3586340129668,548.0705809303336,1 45544U 20025P   25356.53611730  .00000327  00000+0  40857-4 0  9997,2 45544  53.0553  92.9723 0001236  87.2014 272.9117 15.06399005313465
STARLINK-1294,45551,53.0446,0.0001796,15.70123767,357.33305995360115,359.75287539799046,1 45551U 20025W   25357.18697164  .00105433  00000+0  84928-3 0  9992,2 45551  53.0446   1.1968 0001796  99.0269 261.0951 15.70123767314817
STARLINK-1325,45554,53.049,0.0010278,15.81823617,318.3938461328826,332.1733975631523,1 45554U 20025Z   25357.91668980  .00249701  00000+0  11758-2 0  9997,2 45554  53.0490 347.9002 0010278  61.2159 151.0682 15.81823617  6026
STARLINK-1327,45555,53.0547,0.000134,15.11028985,532.134515729048,533.9867166901931,1 45555U 20025AA  25357.91668980  .01582537  00000+0  86068-1 0  9991,2 45555  53.0547  66.7153 0001340  75.5769  38.6833 15.11028985  5797
STARLINK-1356,45564,53.055,0.0001279,15.06405497,546.3089605504529,548.0804604019922,1 45564U 20025AK  25357.17562285  .00005765  00000+0  40550-3 0  9990,2 45564  53.0550  70.1024 0001279 100.0892 260.0241 15.06405497313831
STARLINK-1357,45565,53.0598,0.0001569,15.40838416,442.5632407248477,444.7039123317618,1 45565U 20025AL  25357.40033670  .00073738  00000+0  17633-2 0  9998,2 45565  53.0598  42.9145 0001569 190.3284 169.7688 15.40838416314249
STARLINK-1361,45567,53.0567,0.0001323,15.06400744,546.2930543738339,548.12550099891,1 45567U 20025AN  25356.92867044 -.00000373  00000+0 -61486-5 0  9991,2 45567  53.0567  71.2125 0001323  90.3908 269.7233 15.06400744313809
STARLINK-1363,45568,53.0501,0.000686,15.51611429,407.36266102589616,416.6787574029386,1 45568U 20025AP  25357.54747102  .00088604  00000+0  14579-2 0  9992,2 45568  53.0501  51.1018 0006860 311.7727  48.2695 15.51611429314139
STARLINK-1366,45569,53.0502,0.0006776,15.48363745,416.90482839949163,426.1197130912051,1 45569U 20025AQ  25356.87814355  .00084386  00000+0  15585-2 0  9994,2 45569  53.0502  54.6393 0006776 322.2707  37.7824 15.48363745314022
STARLINK-1376,45570,53.0559,0.000117,15.06397675,546.4084171225841,548.0289503525782,1 45570U 20025AR  25357.19037777  .00000705  00000+0  66189-4 0  9998,2 45570  53.0559  70.0385 0001170  88.2755 271.8368 15.06397675313839
STARLINK-1320,45572,53.0555,0.0004045,15.51525304,409.52526706232857,415.0187079332145,1 45572U 20025AT  25357.70975760  .00123807  00000+0  20325-2 0  9999,2 45572  53.0555 355.9509 0004045  95.6929 264.4541 15.51525304314945
STARLINK-1321,45573,53.0538,0.00013,15.1294252,526.3342729974229,528.1296689298724,1 45573U 20025AU  25357.91668980  .00418344  00000+0  22138-1 0  9992,2 45573  53.0538  56.6347 0001300  75.5512  54.7759 15.12942520  5834
STARLINK-1328,45576,53.0427,3.32e-05,15.93394137,292.5712375799267,293.0141873128332,1 45576U 20025AX  25357.91668980  .00409210  76398-4  11288-2 0  9990,2 45576  53.0427   4.9761 0000332  21.4230 321.7132 15.93394137  6041
STARLINK-1331,45578,53.0556,0.0001208,15.06396789,546.3848159136651,548.0579825029135,1 45578U 20025AZ  25357.48617804 -.00000014  00000+0  17982-4 0  9994,2 45578  53.0556  58.7121 0001208  87.1477 272.9651 15.06396789314031
STARLINK-1333,45580,53.0559,0.0001338,15.06414651,546.2400494682879,548.0932607263912,1 45580U 20025BB  25357.49259831  .00002496  00000+0  18634-3 0  9999,2 45580  53.0559  68.6785 0001338  89.1447 270.9695 15.06414651313883
STARLINK-1335,45581,53.0559,0.0001297,15.0639365,546.3327996099015,548.1292400742495,1 45581U 20025BC  25357.16549897 -.00000671  00000+0 -26178-4 0  9996,2 45581  53.0559  60.1528 0001297  87.4338 272.6799 15.06393650313979
STARLINK-1337,45582,53.0562,0.0001221,15.06401211,546.3622617944338,548.0534310059256,1 45582U 20025BD  25356.45779152  .00001028  00000+0  87892-4 0  9992,2 45582  53.0562  63.3290 0001221  87.3867 272.7262 15.06401211313865
STARLINK-1347,45586,53.0524,3.97e-05,15.39593277,447.0401610874578,447.58210166908975,1 45586U 20025BH  25357.82254182  .00082932  00000+0  20624-2 0  9990,2 45586  53.0524  31.7426 0000397 149.8270 210.2757 15.39593277314421
STARLINK-1360,45588,53.0388,0.0005142,15.95474525,283.5652891193322,290.4197082958026,1 45588U 20025BK  25357.91668980  .00270700  39933-4  66973-3 0  9999,2 45588  53.0388 291.0938 0005142 106.5449 349.5005 15.95474525  6012
STARLINK-1364,45589,53.0556,0.0001244,15.06413353,546.3091249491936,548.0321414883383,1 45589U 20025BL  25357.19127952  .00002462  00000+0  18408-3 0  9995,2 45589  53.0556  60.0364 0001244  87.3260 272.7872 15.06413353313972
